[Satellite]
VERSION=1.1
NAME=GORIZONT 16 [-]
NICKNAME=GORIZONT 16 [-]
TLE1=1 19397U 88071A   15054.22283661 -.00000296  00000-0  00000+0 0  9995
TLE2=2 19397  14.8645   6.7859 0011369 334.8040 216.7009  0.99983481 96928
